{
  "norad_id": 65493,
  "name": "STARLINK-35242",
  "history": [
    {
      "epoch": "2026-03-28T16:38:54.020256Z",
      "apogee_km": 476.09173210511017,
      "perigee_km": 474.2832768348708,
      "latitude_deg": -5.8256489106580594e-05,
      "longitude_deg": 106.61421336478874,
      "height_km": 476.1328062746385,
      "semi_major_axis_km": 6853.324504469991,
      "eccentricity": 0.00013194,
      "inclination_deg": 53.1601,
      "raan_deg": 182.4498,
      "arg_perigee_deg": 92.9966,
      "mean_anomaly_deg": 267.1185,
      "mean_motion_rev_day": 15.30209232
    }
  ]
}